TIANWANG 1C (TW-1C)     
1 40926U 15051B   17180.59735157  .00006452  00000-0  14867-3 0  9998
2 40926  97.2285 220.0622 0013431 119.8257  31.0843 15.42845016 98838
TIANWANG 1B (TW-1B)     
1 40927U 15051C   17180.47391057  .00006272  00000-0  15006-3 0  9999
2 40927  97.2367 219.9515 0013008 129.3934 338.0980 15.41734846 98767
TIANWANG 1A (TW-1A)     
1 40928U 15051D   17180.39388029  .00003126  00000-0  90709-4 0  9995
2 40928  97.2254 215.9904 0013602 147.4948 272.1952 15.36173694 98575
LAPAN-A2 (IO-86)        
1 40931U 15052B   17180.47050780  .00000697  00000-0  81366-5 0  9999
2 40931   5.9976 145.1318 0013155  55.6601 304.4763 14.76531989 94784
LQSAT                   
1 40958U 15057A   17180.54355098  .00000033  00000-0  13005-4 0  9999
2 40958  97.9779 255.6470 0019202  29.9796 330.2508 14.72970133 92943
CHUBUSAT-2              
1 41338U 16012B   17179.93299155  .00000317  00000-0  18123-4 0  9997
2 41338  31.0044  37.6611 0013955 176.6366 183.4365 14.99749099 74759
CHUBUSAT-3              
1 41339U 16012C   17180.59160539  .00000332  00000-0  19208-4 0  9997
2 41339  31.0122  32.6031 0013562 189.3060 170.7324 14.99954437 74831
OUFTI-1                 
1 41458U 16025C   17180.62569889  .00000782  00000-0  46676-4 0  9996
2 41458  98.1855 218.9196 0172483 247.7804 110.5044 15.03205668 64453
E-ST@R-II               
1 41459U 16025D   17180.58142910  .00001806  00000-0  10120-3 0  9996
2 41459  98.1837 218.8148 0173704 248.0856 110.1822 15.03048461 64432
AAUSAT 4                
1 41460U 16025E   17180.50500091  .00001783  00000-0  10000-3 0  9999
2 41460  98.1775 218.8467 0166468 246.8649 111.4953 15.03944085 64441
NUSAT 1 (LO-87)         
1 41557U 16033B   17180.20186342  .00001127  00000-0  45194-4 0  9996
2 41557  97.4630 259.7190 0013349 331.2552  28.7950 15.27077229 60264
BEESAT-4                
1 41619U 16040W   17180.16667099  .00001310  00000-0  62525-4 0  9992
2 41619  97.4616 242.4384 0012933  33.7601 326.4455 15.20782806 44412
PRATHAM                 
1 41783U 16059A   17180.60991228  .00000037  00000-0  16621-4 0  9998
2 41783  98.1661 241.8554 0034878 120.8955 239.5684 14.62841194 40411
ALSAT 1N                
1 41789U 16059G   17180.45149141  .00000100  00000-0  28249-4 0  9996
2 41789  98.1668 242.2231 0029527 115.1202 245.3071 14.64053260 40403
NAYIF-1 (EO-88)         
1 42017U 17008BX  17180.58944369  .00001390  00000-0  62126-4 0  9999
2 42017  97.4945 242.0220 0007000 164.0563 196.0895 15.23008602 20375
LILACSAT-1              
1 42725U 98067ME  17180.61812593  .00008038  00000-0  12325-3 0  9997
2 42725  51.6411 336.1251 0006804 357.9135   2.1826 15.55287719  5433
